{"type": "FeatureCollection", "features": [ {"type": "Feature", "properties": {"norad_id": 35829, "name": "COSMOS 2251 DEB", "group": "cosmos-2251-debris", "lat": 57.82832089760939, "lon": -110.3266650095911, "alt_km": 631.8657383030568, "timestamp": "2025-12-13T18:50:04.827162+00:00", "meta": {"OBJECT_NAME": "COSMOS 2251 DEB", "OBJECT_ID": "1993-036ATB", "EPOCH": "2025-12-08T14:41:25.732032", "MEAN_MOTION": 14.76103447, "ECCENTRICITY": 0.0006283, "INCLINATION": 74.0249, "RA_OF_ASC_NODE": 106.8945, "ARG_OF_PERICENTER": 174.4564, "MEAN_ANOMALY": 185.6681, "EPHEMERIS_TYPE": 0, "CLASSIFICATION_TYPE": "U", "NORAD_CAT_ID": 35829, "ELEMENT_SET_NO": 999, "REV_AT_EPOCH": 87714, "BSTAR": 0.0032694, "MEAN_MOTION_DOT": 0.0002262, "MEAN_MOTION_DDOT": 0}, "tle": {"line1": "1 35829U 93036ATB 25342.61210338  .00022620  00000+0  32694-2 0  9995", "line2": "2 35829  74.0249 106.8945 0006283 174.4564 185.6681 14.76103447877147"}}, "geometry": {"type": "Point", "coordinates": [-110.3266650095911, 57.82832089760939]}}, {"type": "Feature", "properties": {"norad_id": 35830, "name": "COSMOS 2251 DEB", "group": "cosmos-2251-debris", "lat": -41.98895303926772, "lon": 99.64329234408277, "alt_km": 731.0184347835802, "timestamp": "2025-12-13T18:50:04.827172+00:00", "meta": {"OBJECT_NAME": "COSMOS 2251 DEB", "OBJECT_ID": "1993-036ATC", "EPOCH": "2025-12-06T12:06:38.215008", "MEAN_MOTION": 14.23927917, "ECCENTRICITY": 0.01224789, "INCLINATION": 73.8624, "RA_OF_ASC_NODE": 277.7805, "ARG_OF_PERICENTER": 247.2482, "MEAN_ANOMALY": 111.5683, "EPHEMERIS_TYPE": 0, "CLASSIFICATION_TYPE": "U", "NORAD_CAT_ID": 35830, "ELEMENT_SET_NO": 999, "REV_AT_EPOCH": 61175, "BSTAR": 0.0019622096, "MEAN_MOTION_DOT": 4.837e-05, "MEAN_MOTION_DDOT": 0}, "tle": {"line1": "1 35830U 93036ATC 25340.50460897  .00004837  00000+0  19622-2 0  9996", "line2": "2 35830  73.8624 277.7805 0122478 247.2482 111.5683 14.23927917611750"}}, "geometry": {"type": "Point", "coordinates": [99.64329234408277, -41.98895303926772]}}, {"type": "Feature", "properties": {"norad_id": 35834, "name": "COSMOS 2251 DEB", "group": "cosmos-2251-debris", "lat": 19.159956093957355, "lon": -51.571341258463306, "alt_km": 837.9783527037471, "timestamp": "2025-12-13T18:50:04.827183+00:00", "meta": {"OBJECT_NAME": "COSMOS 2251 DEB", "OBJECT_ID": "1993-036ATG", "EPOCH": "2025-12-12T20:47:15.272736", "MEAN_MOTION": 14.12979936, "ECCENTRICITY": 0.01092598, "INCLINATION": 73.9317, "RA_OF_ASC_NODE": 304.3154, "ARG_OF_PERICENTER": 104.5119, "MEAN_ANOMALY": 285.8109, "EPHEMERIS_TYPE": 0, "CLASSIFICATION_TYPE": "U", "NORAD_CAT_ID": 35834, "ELEMENT_SET_NO": 999, "REV_AT_EPOCH": 66265, "BSTAR": 0.00043494397, "MEAN_MOTION_DOT": 8.33e-06, "MEAN_MOTION_DDOT": 0}, "tle": {"line1": "1 35834U 93036ATG 25346.86614899  .00000833  00000+0  43494-3 0  9995", "line2": "2 35834  73.9317 304.3154 0109259 104.5119 285.8109 14.12979936662651"}}, "geometry": {"type": "Point", "coordinates": [-51.571341258463306, 19.159956093957355]}}, {"type": "Feature", "properties": {"norad_id": 35835, "name": "COSMOS 2251 DEB", "group": "cosmos-2251-debris", "lat": -24.359065146110005, "lon": 94.11378332735966, "alt_km": 1154.0337254049828, "timestamp": "2025-12-13T18:50:04.827193+00:00", "meta": {"OBJECT_NAME": "COSMOS 2251 DEB", "OBJECT_ID": "1993-036ATH", "EPOCH": "2025-12-11T12:02:32.949600", "MEAN_MOTION": 13.82870055, "ECCENTRICITY": 0.02901062, "INCLINATION": 74.0631, "RA_OF_ASC_NODE": 270.5178, "ARG_OF_PERICENTER": 52.3891, "MEAN_ANOMALY": 310.3189, "EPHEMERIS_TYPE": 0, "CLASSIFICATION_TYPE": "U", "NORAD_CAT_ID": 35835, "ELEMENT_SET_NO": 999, "REV_AT_EPOCH": 61682, "BSTAR": 0.0024457377, "MEAN_MOTION_DOT": 3.663e-05, "MEAN_MOTION_DDOT": 0}, "tle": {"line1": "1 35835U 93036ATH 25345.50177025  .00003663  00000+0  24457-2 0  9992", "line2": "2 35835  74.0631 270.5178 0290106  52.3891 310.3189 13.82870055616820"}}, "geometry": {"type": "Point", "coordinates": [94.11378332735966, -24.359065146110005]}}, {"type": "Feature", "properties": {"norad_id": 35836, "name": "COSMOS 2251 DEB", "group": "cosmos-2251-debris", "lat": 31.686520778701556, "lon": -178.9136418173649, "alt_km": 672.0443257436991, "timestamp": "2025-12-13T18:50:04.827204+00:00", "meta": {"OBJECT_NAME": "COSMOS 2251 DEB", "OBJECT_ID": "1993-036ATJ", "EPOCH": "2025-12-13T05:37:34.516992", "MEAN_MOTION": 14.70990957, "ECCENTRICITY": 0.00241806, "INCLINATION": 74.0315, "RA_OF_ASC_NODE": 171.9741, "ARG_OF_PERICENTER": 230.4971, "MEAN_ANOMALY": 129.4063, "EPHEMERIS_TYPE": 0, "CLASSIFICATION_TYPE": "U", "NORAD_CAT_ID": 35836, "ELEMENT_SET_NO": 999, "REV_AT_EPOCH": 63527, "BSTAR": 0.0031966688, "MEAN_MOTION_DOT": 0.00019724, "MEAN_MOTION_DDOT": 0}, "tle": {"line1": "1 35836U 93036ATJ 25347.23442728  .00019724  00000+0  31967-2 0  9999", "line2": "2 35836  74.0315 171.9741 0024180 230.4971 129.4063 14.70990957635277"}}, "geometry": {"type": "Point", "coordinates": [-178.9136418173649, 31.686520778701556]}}, {"type": "Feature", "properties": {"norad_id": 35837, "name": "COSMOS 2251 DEB", "group": "cosmos-2251-debris", "lat": -72.60578575586649, "lon": 137.02977073836942, "alt_km": 1296.0757394855818, "timestamp": "2025-12-13T18:50:04.827215+00:00", "meta": {"OBJECT_NAME": "COSMOS 2251 DEB", "OBJECT_ID": "1993-036ATK", "EPOCH": "2025-12-09T22:01:37.127712", "MEAN_MOTION": 13.63437069, "ECCENTRICITY": 0.04220669, "INCLINATION": 73.7216, "RA_OF_ASC_NODE": 212.3216, "ARG_OF_PERICENTER": 133.5531, "MEAN_ANOMALY": 246.304, "EPHEMERIS_TYPE": 0, "CLASSIFICATION_TYPE": "U", "NORAD_CAT_ID": 35837, "ELEMENT_SET_NO": 999, "REV_AT_EPOCH": 57938, "BSTAR": 0.0025074688, "MEAN_MOTION_DOT": 3.597e-05, "MEAN_MOTION_DDOT": 0}, "tle": {"line1": "1 35837U 93036ATK 25343.91779083  .00003597  00000+0  25075-2 0  9992", "line2": "2 35837  73.7216 212.3216 0422066 133.5531 246.3040 13.63437069579385"}}, "geometry": {"type": "Point", "coordinates": [137.02977073836942, -72.60578575586649]}}, {"type": "Feature", "properties": {"norad_id": 35839, "name": "COSMOS 2251 DEB", "group": "cosmos-2251-debris", "lat": -68.6157575665731, "lon": -85.05722509717515, "alt_km": 415.0279010237873, "timestamp": "2025-12-13T18:50:04.827225+00:00", "meta": {"OBJECT_NAME": "COSMOS 2251 DEB", "OBJECT_ID": "1993-036ATM", "EPOCH": "2025-12-13T06:47:30.360192", "MEAN_MOTION": 15.52938952, "ECCENTRICITY": 0.0002213, "INCLINATION": 74.2059, "RA_OF_ASC_NODE": 322.3295, "ARG_OF_PERICENTER": 124.2578, "MEAN_ANOMALY": 235.8848, "EPHEMERIS_TYPE": 0, "CLASSIFICATION_TYPE": "U", "NORAD_CAT_ID": 35839, "ELEMENT_SET_NO": 999, "REV_AT_EPOCH": 88576, "BSTAR": 0.0080602475, "MEAN_MOTION_DOT": 0.00537487, "MEAN_MOTION_DDOT": 0}, "tle": {"line1": "1 35839U 93036ATM 25347.28299028  .00537487  00000+0  80602-2 0  9991", "line2": "2 35839  74.2059 322.3295 0002213 124.2578 235.8848 15.52938952885761"}}, "geometry": {"type": "Point", "coordinates": [-85.05722509717515, -68.6157575665731]}}, {"type": "Feature", "properties": {"norad_id": 35840, "name": "COSMOS 2251 DEB", "group": "cosmos-2251-debris", "lat": -4.308178540277267, "lon": 154.99851763555813, "alt_km": 730.0891952109423, "timestamp": "2025-12-13T18:50:04.827236+00:00", "meta": {"OBJECT_NAME": "COSMOS 2251 DEB", "OBJECT_ID": "1993-036ATN", "EPOCH": "2025-12-12T04:26:56.474304", "MEAN_MOTION": 14.37821687, "ECCENTRICITY": 0.01162768, "INCLINATION": 73.9307, "RA_OF_ASC_NODE": 159.2062, "ARG_OF_PERICENTER": 61.7798, "MEAN_ANOMALY": 299.5037, "EPHEMERIS_TYPE": 0, "CLASSIFICATION_TYPE": "U", "NORAD_CAT_ID": 35840, "ELEMENT_SET_NO": 999, "REV_AT_EPOCH": 85283, "BSTAR": 0.0026691111, "MEAN_MOTION_DOT": 8.683e-05, "MEAN_MOTION_DDOT": 0}, "tle": {"line1": "1 35840U 93036ATN 25346.18537586  .00008683  00000+0  26691-2 0  9994", "line2": "2 35840  73.9307 159.2062 0116276  61.7798 299.5037 14.37821687852835"}}, "geometry": {"type": "Point", "coordinates": [154.99851763555813, -4.308178540277267]}}, {"type": "Feature", "properties": {"norad_id": 35883, "name": "COSMOS 2251 DEB", "group": "cosmos-2251-debris", "lat": 42.08208930029147, "lon": 83.05217904525136, "alt_km": 772.6665137880445, "timestamp": "2025-12-13T18:50:04.827247+00:00", "meta": {"OBJECT_NAME": "COSMOS 2251 DEB", "OBJECT_ID": "1993-036ATW", "EPOCH": "2025-12-12T23:34:54.404832", "MEAN_MOTION": 14.50607241, "ECCENTRICITY": 0.00836818, "INCLINATION": 74.025, "RA_OF_ASC_NODE": 69.5692, "ARG_OF_PERICENTER": 198.8401, "MEAN_ANOMALY": 338.319, "EPHEMERIS_TYPE": 0, "CLASSIFICATION_TYPE": "U", "NORAD_CAT_ID": 35883, "ELEMENT_SET_NO": 999, "REV_AT_EPOCH": 62389, "BSTAR": 0.0005176581, "MEAN_MOTION_DOT": 2.095e-05, "MEAN_MOTION_DDOT": 0}, "tle": {"line1": "1 35883U 93036ATW 25346.98257413  .00002095  00000+0  51766-3 0  9990", "line2": "2 35883  74.0250  69.5692 0083681 198.8401 338.3190 14.50607241623896"}}, "geometry": {"type": "Point", "coordinates": [83.05217904525136, 42.08208930029147]}}, {"type": "Feature", "properties": {"norad_id": 35884, "name": "COSMOS 2251 DEB", "group": "cosmos-2251-debris", "lat": 29.002837261535966, "lon": -16.722930646071745, "alt_km": 804.4740770201761, "timestamp": "2025-12-13T18:50:04.827257+00:00", "meta": {"OBJECT_NAME": "COSMOS 2251 DEB", "OBJECT_ID": "1993-036ATX", "EPOCH": "2025-12-09T17:00:47.209536", "MEAN_MOTION": 14.25629404, "ECCENTRICITY": 0.01087033, "INCLINATION": 73.9912, "RA_OF_ASC_NODE": 341.4952, "ARG_OF_PERICENTER": 129.2859, "MEAN_ANOMALY": 231.7992, "EPHEMERIS_TYPE": 0, "CLASSIFICATION_TYPE": "U", "NORAD_CAT_ID": 35884, "ELEMENT_SET_NO": 999, "REV_AT_EPOCH": 22314, "BSTAR": 0.001725321, "MEAN_MOTION_DOT": 4.326e-05, "MEAN_MOTION_DDOT": 0}, "tle": {"line1": "1 35884U 93036ATX 25343.70887974  .00004326  00000+0  17253-2 0  9990", "line2": "2 35884  73.9912 341.4952 0108703 129.2859 231.7992 14.25629404223146"}}, "geometry": {"type": "Point", "coordinates": [-16.722930646071745, 29.002837261535966]}}]}